[
{"zipCode": "07001", "town":"Palma De Mallorca","island": "Mallorca"},
{"zipCode": "07002", "town":"Palma De Mallorca","island": "Mallorca"},
{"zipCode": "07003", "town":"Palma De Mallorca","island": "Mallorca"},
{"zipCode": "07004", "town":"Palma De Mallorca","island": "Mallorca"},
{"zipCode": "07005", "town":"Palma De Mallorca","island": "Mallorca"},
{"zipCode": "07006", "town":"Palma De Mallorca","island": "Mallorca"},
{"zipCode": "07007","town": "Palma De Mallorca","island": "Mallorca"},
{"zipCode": "07008", "town":"Palma De Mallorca","island": "Mallorca"},
{"zipCode": "07009", "town":"El Pla De Na Tesa","island": "Mallorca"},
{"zipCode": "07009", "town":"El Pont D Inca",    "island": "Mallorca"},
{"zipCode": "07009", "town":"Es Pla De Na Tesa/El Pla De Na Tesa","island": "Mallorca"},
{"zipCode": "07009", "town":"Es Pla De Na Tesa","island": "Mallorca"},
{"zipCode": "07009", "town":"Es Pont D Inca/El Pont D Inca","island": "Mallorca"},
{"zipCode": "07009", "town":"Es Pont D Inca",    "island": "Mallorca"},
{"zipCode": "07009", "town":"Palma De Mallorca","island": "Mallorca"},
{"zipCode": "07010", "town":"Palma De Mallorca","island": "Mallorca"},
{"zipCode": "07011", "town":"Palma De Mallorca","island": "Mallorca"},
{"zipCode": "07012", "town":"Palma De Mallorca","island": "Mallorca"},
{"zipCode": "07013", "town":"Palma De Mallorca","island": "Mallorca"},
{"zipCode": "07014", "town":"Palma De Mallorca","island": "Mallorca"},
{"zipCode": "07015", "town":"Palma De Mallorca","island": "Mallorca"},
{"zipCode": "07070","town": "Palma De Mallorca","island": "Mallorca"},
{"zipCode": "07071","town": "Palma De Mallorca","island": "Mallorca"},
{"zipCode": "07080", "town":"Palma De Mallorca","island": "Mallorca"},
{"zipCode": "07100", "town":"L Horta De Pollença","island": "Mallorca"},
{"zipCode": "07100", "town":"Sa Calobra","island": "Mallorca"},
{"zipCode": "07100", "town":"S'Horta (Soller)","island": "Mallorca"},
{"zipCode": "07100", "town":"Sa Calobra/La Calobra","island": "Mallorca"},
{"zipCode": "07100", "town":"Sa Calobra","island": "Mallorca"},
{"zipCode": "07100", "town":"Soller","island": "Mallorca"},
{"zipCode": "07101", "town":"Biniaraix","island": "Mallorca"},
{"zipCode": "07108", "town":"Camp De Lama","island": "Mallorca"},
{"zipCode": "07108", "town":"Muleta","island": "Mallorca"},
{"zipCode": "07108", "town":"Port De Soller","island": "Mallorca"},
{"zipCode": "07109", "town":"Fornalutx","island": "Mallorca"},
{"zipCode": "07110", "town":"Bunyola","island": "Mallorca"},
{"zipCode": "07119", "town":"Caubet","island": "Mallorca"},
{"zipCode": "07120", "town":"La Garriga","island": "Mallorca"},
{"zipCode": "07120", "town":"Palma De Mallorca","island": "Mallorca"},
{"zipCode": "07120", "town":"Sa Garriga/La Garriga","island": "Mallorca"},
{"zipCode": "07120", "town":"Sa Garriga","island": "Mallorca"},
{"zipCode": "07120", "town":"Son Espanyol","island": "Mallorca"},
{"zipCode": "07120", "town":"Son Sardina","island": "Mallorca"},
{"zipCode": "07121", "town":"Palma De Mallorca","island": "Mallorca"},
{"zipCode": "07122", "town":"Palma De Mallorca","island": "Mallorca"},
{"zipCode": "07130", "town":"Centro Militar General Asensio","island": "Mallorca"},
{"zipCode": "07140", "town":"Ca S Cana","island": "Mallorca"},
{"zipCode": "07140", "town":"Sancellas","island": "Mallorca"},
{"zipCode": "07140", "town":"Sencelles","island": "Mallorca"},
{"zipCode": "07141", "town":"Benestar","island": "Mallorca"},
{"zipCode": "07141", "town":"Es Caulls","island": "Mallorca"},
{"zipCode": "07141", "town":"Es Figueral (Marratxi)","island": "Mallorca"},
{"zipCode": "07141", "town":"Es Garrovers","island": "Mallorca"},
{"zipCode": "07141", "town":"La Cabaneta","island": "Mallorca"},
{"zipCode": "07141", "town":"Marratxinet (Marratxi)","island": "Mallorca"},
{"zipCode": "07141", "town":"Planera","island": "Mallorca"},
{"zipCode": "07141", "town":"Poligono Industrial De Marratxi","island": "Mallorca"},
{"zipCode": "07141", "town":"Pòrtol","island": "Mallorca"},
{"zipCode": "07141", "town":"Sa Cabaneta/La Cabaneta","island": "Mallorca"},
{"zipCode": "07141", "town":"Sa Cabaneta","island": "Mallorca"},
{"zipCode": "07141", "town":"Sant Marçal","island": "Mallorca"},
{"zipCode": "07141", "town":"Son Amtller","island": "Mallorca"},
{"zipCode": "07141", "town":"Son Daviu","island": "Mallorca"},
{"zipCode": "07141", "town":"Son Ramonell","island": "Mallorca"},
{"zipCode": "07141", "town":"Son Veri (Marratxi)","island": "Mallorca"},
{"zipCode": "07142", "town":"Les Alqueries","island": "Mallorca"},
{"zipCode": "07142", "town":"Les Coves","island": "Mallorca"},
{"zipCode": "07142", "town":"Les Olleries","island": "Mallorca"},
{"zipCode": "07142", "town":"Santa Eugenia","island": "Mallorca"},
{"zipCode": "07142", "town":"Ses Alqueries/Les Alqueries","island": "Mallorca"},
{"zipCode": "07142", "town":"Ses Alqueries","island": "Mallorca"},
{"zipCode": "07142", "town":"Ses Coves/Les Coves","island": "Mallorca"},
{"zipCode": "07142", "town":"Ses Coves","island": "Mallorca"},
{"zipCode": "07142", "town":"Ses Olleries/Les Olleries","island": "Mallorca"},
{"zipCode": "07142", "town":"Ses Olleries","island": "Mallorca"},
{"zipCode": "07143", "town":"Biniali","island": "Mallorca"},
{"zipCode": "07143", "town":"Son Arosa","island": "Mallorca"},
{"zipCode": "07144", "town":"Costitx","island": "Mallorca"},
{"zipCode": "07144", "town":"Jornets","island": "Mallorca"},
{"zipCode": "07150", "town":"Andratx","island": "Mallorca"},
{"zipCode": "07157", "town":"Port D Andratx","island": "Mallorca"},
{"zipCode": "07159", "town":"L Arraco","island": "Mallorca"},
{"zipCode": "07159", "town":"S Arraco/L Arraco","island": "Mallorca"},
{"zipCode": "07159", "town":"S Arraco","island": "Mallorca"},
{"zipCode": "07159", "town":"Sant Elm","island": "Mallorca"},
{"zipCode": "07160", "town":"Cala Fornells","island": "Mallorca"},
{"zipCode": "07160", "town":"El Camp De Mar","island": "Mallorca"},
{"zipCode": "07160", "town":"Es Camp De Mar/El Camp De Mar","island": "Mallorca"},
{"zipCode": "07160", "town":"Es Camp De Mar","island": "Mallorca"},
{"zipCode": "07160", "town":"Peguera","island": "Mallorca"},
{"zipCode": "07170", "town":"La Estaca","island": "Mallorca"},
{"zipCode": "07170", "town":"Miramar","island": "Mallorca"},
{"zipCode": "07170", "town":"Nova Valldemosa","island": "Mallorca"},
{"zipCode": "07170", "town":"Valldemossa","island": "Mallorca"},
{"zipCode": "07179", "town":"Deià","island": "Mallorca"},
{"zipCode": "07179", "town":"Llucalcari","island": "Mallorca"},
{"zipCode": "07180", "town":"Santa Ponça","island": "Mallorca"},
{"zipCode": "07181", "town":"Bendinat","island": "Mallorca"},
{"zipCode": "07181", "town":"Cala Vinyes","island": "Mallorca"},
{"zipCode": "07181", "town":"Cas Català","island": "Mallorca"},
{"zipCode": "07181", "town":"Castillo De Bendinat","island": "Mallorca"},
{"zipCode": "07181", "town":"Costa D En Blanes","island": "Mallorca"},
{"zipCode": "07181", "town":"Illetes (Ses)","island": "Mallorca"},
{"zipCode": "07181", "town":"La Porrassa","island": "Mallorca"},
{"zipCode": "07181", "town":"Magalluf","island": "Mallorca"},
{"zipCode": "07181", "town":"Palmanova","island": "Mallorca"},
{"zipCode": "07181", "town":"Portals Nous","island": "Mallorca"},
{"zipCode": "07181", "town":"Portals Vells","island": "Mallorca"},
{"zipCode": "07181", "town":"Punta Negra","island": "Mallorca"},
{"zipCode": "07181", "town":"Sa Porrassa/La Porrassa","island": "Mallorca"},
{"zipCode": "07181", "town":"Sa Porrassa","island": "Mallorca"},
{"zipCode": "07181", "town":"Sol De Mallorca","island": "Mallorca"},
{"zipCode": "07181", "town":"Son Caliu","island": "Mallorca"},
{"zipCode": "07181", "town":"Son Ferrer","island": "Mallorca"},
{"zipCode": "07181", "town":"Son Matias","island": "Mallorca"},
{"zipCode": "07181", "town":"Torrenova","island": "Mallorca"},
{"zipCode": "07182", "town":"El Toro","island": "Mallorca"},
{"zipCode": "07183", "town":"Costa De La Calma","island": "Mallorca"},
{"zipCode": "07183", "town":"Costa De Sa Calma/Costa De La Calma","island": "Mallorca"},
{"zipCode": "07183", "town":"Costa De Sa Calma","island": "Mallorca"},
{"zipCode": "07183", "town":"Rotes Velles","island": "Mallorca"},
{"zipCode": "07184", "town":"Calvià","island": "Mallorca"},
{"zipCode": "07190", "town":"Esporles","island": "Mallorca"},
{"zipCode": "07190", "town":"La Granja","island": "Mallorca"},
{"zipCode": "07190", "town":"Port Del Canonge","island": "Mallorca"},
{"zipCode": "07190", "town":"Port Des Canonge/Port Del Canonge","island": "Mallorca"},
{"zipCode": "07190", "town":"Port Des Canonge","island": "Mallorca"},
{"zipCode": "07190", "town":"S Esglaieta","island": "Mallorca"},
{"zipCode": "07190", "town":"Ses Rotgetes","island": "Mallorca"},
{"zipCode": "07190", "town":"Son Maxella","island": "Mallorca"},
{"zipCode": "07190", "town":"Son Trias","island": "Mallorca"},
{"zipCode": "07191", "town":"Banyalbufar","island": "Mallorca"},
{"zipCode": "07192", "town":"Estellencs","island": "Mallorca"},
{"zipCode": "07193", "town":"La Font Seca","island": "Mallorca"},
{"zipCode": "07193", "town":"Palmanyola","island": "Mallorca"},
{"zipCode": "07193", "town":"Sa Font Seca/La Font Seca","island": "Mallorca"},
{"zipCode": "07193", "town":"Sa Font Seca","island": "Mallorca"},
{"zipCode": "07193", "town":"Son Amar","island": "Mallorca"},
{"zipCode": "07193", "town":"Son Puig","island": "Mallorca"},
{"zipCode": "07193", "town":"Son Termes","island": "Mallorca"},
{"zipCode": "07193", "town":"Son Tugores","island": "Mallorca"},
{"zipCode": "07194", "town":"Puigpunyent","island": "Mallorca"},
{"zipCode": "07195", "town":"Galilea","island": "Mallorca"},
{"zipCode": "07196", "town":"Es Capdella","island": "Mallorca"},
{"zipCode": "07198", "town":"La Creu Vermella","island": "Mallorca"},
{"zipCode": "07198", "town":"Palma De Mallorca","island": "Mallorca"},
{"zipCode": "07198", "town":"S Hostalot","island": "Mallorca"},
{"zipCode": "07198", "town":"Sa Creu Vermella/La Creu Vermella","island": "Mallorca"},
{"zipCode": "07198", "town":"Sa Creu Vermella","island": "Mallorca"},
{"zipCode": "07198", "town":"Son Ferriol","island": "Mallorca"},
{"zipCode": "07199", "town":"Base Aerea Son Sant Joan","island": "Mallorca"},
{"zipCode": "07199", "town":"L Aranjassa","island": "Mallorca"},
{"zipCode": "07199", "town":"La Casa Blanca","island": "Mallorca"},
{"zipCode": "07199", "town":"Palma De Mallorca","island": "Mallorca"},
{"zipCode": "07199", "town":"S Aranjassa/L Aranjassa","island": "Mallorca"},
{"zipCode": "07199", "town":"S Aranjassa","island": "Mallorca"},
{"zipCode": "07199", "town":"Sa Casa Blanca/La Casa Blanca","island": "Mallorca"},
{"zipCode": "07199", "town":"Sa Casa Blanca","island": "Mallorca"},
{"zipCode": "07199", "town":"Sant Jordi","island": "Mallorca"},
{"zipCode": "07199", "town":"Son Suñe","island": "Mallorca"},
{"zipCode": "07200", "town":"Felanitx","island": "Mallorca"},
{"zipCode": "07208", "town":"Cas Concos Des Cavaller","island": "Mallorca"},
{"zipCode": "07208", "town":"El Carritxó","island": "Mallorca"},
{"zipCode": "07208", "town":"Es Carritxó","island": "Mallorca"},
{"zipCode": "07208", "town":"Es/Carritxó, El Carritxó","island": "Mallorca"},
{"zipCode": "07208", "town":"Son Negre","island": "Mallorca"},
{"zipCode": "07209", "town":"Canteras Las","island": "Mallorca"},
{"zipCode": "07209", "town":"Son Calderó","island": "Mallorca"},
{"zipCode": "07209", "town":"Son Mayol","island": "Mallorca"},
{"zipCode": "07209", "town":"Son Mesquida","island": "Mallorca"},
{"zipCode": "07209", "town":"Son Proenç","island": "Mallorca"},
{"zipCode": "07209", "town":"Son Valls","island": "Mallorca"},
{"zipCode": "07210", "town":"Algaida","island": "Mallorca"},
{"zipCode": "07210", "town":"Castellitx","island": "Mallorca"},
{"zipCode": "07220", "town":"Pina","island": "Mallorca"},
{"zipCode": "07220", "town":"Ruberts","island": "Mallorca"},
{"zipCode": "07230", "town":"Montuiri","island": "Mallorca"},
{"zipCode": "07240", "town":"Sant Joan","island": "Mallorca"},
{"zipCode": "07250", "town":"Vilafranca De Bonany","island": "Mallorca"},
{"zipCode": "07260", "town":"Porreres","island": "Mallorca"},
{"zipCode": "07300", "town":"Inca","island": "Mallorca"},
{"zipCode": "07310", "town":"Campanet","island": "Mallorca"},
{"zipCode": "07310", "town":"Son Pacos","island": "Mallorca"},
{"zipCode": "07311", "town":"Buger","island": "Mallorca"},
{"zipCode": "07311", "town":"Es Pujols (Mallorca)","island": "Mallorca"},
{"zipCode": "07311", "town":"Sa Sorteta","island": "Mallorca"},
{"zipCode": "07312", "town":"Mancor De La Vall","island": "Mallorca"},
{"zipCode": "07313", "town":"Selva","island": "Mallorca"},
{"zipCode": "07314", "town":"Caimari","island": "Mallorca"},
{"zipCode": "07314", "town":"Moscari","island": "Mallorca"},
{"zipCode": "07315", "town":"Escorca","island": "Illes Balears"},
{"zipCode": "07315", "town":"Lluc","island": "Illes Balears"},
{"zipCode": "07315", "town":"Santuario De Lluch","island": "Illes Balears"},
{"zipCode": "07316", "town":"Sol Aires De Montanya","island": "Illes Balears"},
{"zipCode": "07320", "town":"Santa Maria Del Cami (Isla De Mallorca)","island": "Illes Balears"},
{"zipCode": "07330", "town":"Consell","island": "Illes Balears"},
{"zipCode": "07340", "town":"Alaro","island": "Illes Balears"},
{"zipCode": "07349", "town":"Orient","island": "Illes Balears"},
{"zipCode": "07350", "town":"Biniagual","island": "Illes Balears"},
{"zipCode": "07350", "town":"Binissalem","island": "Illes Balears"},
{"zipCode": "07360", "town":"Lloseta","island":""},
{"zipCode": "07369", "town":"Biniamar","island":""},
{"zipCode": "07400", "town":"Alcudia","island":""},
{"zipCode": "07408", "town":"Bahia De Alcudia","island":""},
{"zipCode": "07408", "town":"Ciudad Blanca","island":""},
{"zipCode": "07408", "town":"Ciudad De Los Lagos","island":""},
{"zipCode": "07408", "town":"Lago Esperanza","island":""},
{"zipCode": "07408", "town":"Lago Menor","island":""},
{"zipCode": "07408", "town":"Platja De Alcudia","island":""},
{"zipCode": "07409", "town":"Bahia Club","island":""},


{"zipCode": "07409", "town":"Bon Aire","island":""},
{"zipCode": "07409", "town":"Castell De Manresa","island":""},
{"zipCode": "07409", "town":"Cielo De Bon Aire","island":""},
{"zipCode": "07409", "town":"Corral Den Bennasar","island":""},
{"zipCode": "07409", "town":"Cova Quintana","island":""},
{"zipCode": "07409", "town":"El Barcares","island":""},
{"zipCode": "07409", "town":"El Mal Pas","island":""},
{"zipCode": "07409", "town":"Es Barcares/El Barcares","island":""},
{"zipCode": "07409", "town":"Es Barcares","island":""},
{"zipCode": "07409", "town":"Es Mal Pas/El Mal Pas","island":""},

{"zipCode": "07409", "town":"Es Mal Pas","island":""},
{"zipCode": "07409", "town":"More Vermell","island":""},
{"zipCode": "07409", "town":"Pi De La Señora","island":""},
{"zipCode": "07409", "town":"Punta Del Sebetli","island":""},
{"zipCode": "07409", "town":"Sa Marina","island":""},
{"zipCode": "07409", "town":"Son Fe","island":""},
{"zipCode": "07410", "town":"Aucanada","island":""},
{"zipCode": "07410", "town":"De Lazareto","island":""},
{"zipCode": "07410", "town":"Marques De Suances","island":""},
{"zipCode": "07410", "town":"Port D Alcudia","island":""},

{"zipCode": "07410", "town":"Teatro Romano","island":""},
{"zipCode": "07410", "town":"Torre Mayor","island":""},
{"zipCode": "07420", "town":"La Pobla","island":""},
{"zipCode": "07420", "town":"Sa Pobla/La Pobla","island":""},
{"zipCode": "07420", "town":"Sa Pobla","island":""},
{"zipCode": "07430", "town":"Llubi","island":""},
{"zipCode": "07440", "town":"Muro","island":""},
{"zipCode": "07450", "town":"Santa Margalida","island":""},
{"zipCode": "07458", "town":"Ca N Picafort","island":""},
{"zipCode": "07458", "town":"Las Gaviotas","island":""},

{"zipCode": "07458", "town":"Platja De Muro","island":""},
{"zipCode": "07458", "town":"Ses Fotges","island":""},
{"zipCode": "07458", "town":"Son Baulo","island":""},
{"zipCode": "07459", "town":"Colonia Virgen Del Carmen","island":""},
{"zipCode": "07459", "town":"Serra Nova","island":""},
{"zipCode": "07459", "town":"Son Real","island":""},
{"zipCode": "07459", "town":"Son Serra De Marina","island":""},
{"zipCode": "07460", "town":"L'Horta De La Font","island":""},
{"zipCode": "07460", "town":"La Huerta","island":""},
{"zipCode": "07460", "town":"Pollença","island":""},

{"zipCode": "07460", "town":"Santuario Del Puig","island":""},
{"zipCode": "07469", "town":"Cala Carbo","island":""},
{"zipCode": "07469", "town":"Cala Sant Vicenç (Pollença)","island":""},
{"zipCode": "07469", "town":"Los Encinares","island":""},
{"zipCode": "07470", "town":"Base Aeria De Pollença","island":""},
{"zipCode": "07470", "town":"Formentor","island":""},
{"zipCode": "07470", "town":"Port De Pollença","island":""},
{"zipCode": "07500", "town":"Manacor","island":""},
{"zipCode": "07509", "town":"Las Tapareras","island":""},
{"zipCode": "07509", "town":"Moli Den Covas","island":""},

{"zipCode": "07509", "town":"Son Fangos","island":""},
{"zipCode": "07509", "town":"Son Macià","island":""},
{"zipCode": "07510", "town":"Sineu","island":""},
{"zipCode": "07518", "town":"Lloret De Vistalegre","island":""},
{"zipCode": "07518", "town":"Llorito","island":""},
{"zipCode": "07519", "town":"Maria De La Salut","island":""},
{"zipCode": "07520", "town":" Bon Any","island":""},
{"zipCode": "07520", "town":" Petra","island":""},
{"zipCode": "07529", "town":"Ariany","island":""},
{"zipCode": "07530", "town":"Sant Llorenç Des Cardassar","island":""},


{"zipCode": "07540", "town":"San Miguel De Son Carrio","island":""},
{"zipCode": "07540", "town":"Son Carrio (Mallorca)","island":""},
{"zipCode": "07550", "town":"Son Servera","island":""},
{"zipCode": "07559", "town":"Cala Bona","island":""},
{"zipCode": "07559", "town":"Costa De Los Pinos","island":""},
{"zipCode": "07559", "town":"Port Nou","island":""},
{"zipCode": "07559", "town":"Port Vell","island":""},
{"zipCode": "07559", "town":"Port Verd","island":""},
{"zipCode": "07560", "town":"Bon Repos","island":""},
{"zipCode": "07560", "town":"Cala Millor","island":""},

{"zipCode": "07560", "town":"California","island":""},
{"zipCode": "07560", "town":"Sa Coma (Cala Millor)","island":""},
{"zipCode": "07560", "town":"Sa Coma","island":""},
{"zipCode": "07560", "town":"Sa Manigue","island":""},
{"zipCode": "07570", "town":"Arta","island":""},
{"zipCode": "07570", "town":"D En Sales","island":""},
{"zipCode": "07570", "town":"El Collet","island":""},
{"zipCode": "07570", "town":"Ses Fulles","island":""},
{"zipCode": "07579", "town":"Betlem","island":""},
{"zipCode": "07579", "town":"Cala Mitjana","island":""},



{"zipCode": "07579", "town":"Colonia De Sant Pere","island":""},
{"zipCode": "07580", "town":"Capdepera","island":""},
{"zipCode": "07589", "town":"Cala Mesquida","island":""},
{"zipCode": "07589", "town":"Cala Provensals","island":""},
{"zipCode": "07589", "town":"Canyamel","island":""},
{"zipCode": "07589", "town":"Es Fangar","island":""},
{"zipCode": "07589", "town":"Es Pelats","island":""},
{"zipCode": "07589", "town":"Font De La Cala","island":""},
{"zipCode": "07589", "town":"Font De Sa Cala/Font De La Cala","island":""},
{"zipCode": "07589", "town":"Font De Sa Cala","island":""},


{"zipCode": "07589", "town":"N Aguait","island":""},
{"zipCode": "07589", "town":"Na Taconera","island":""},
{"zipCode": "07590", "town":"Cala Gat","island":""},
{"zipCode": "07590", "town":"Cala Ratjada","island":""},
{"zipCode": "07590", "town":"Ses Rotges","island":""},
{"zipCode": "07599", "town":"Cala Guya","island":""},
{"zipCode": "07599", "town":"Cala Lliteres","island":""},
{"zipCode": "07599", "town":"Cala Pedruscada","island":""},
{"zipCode": "07599", "town":"Es Carregador","island":""},
{"zipCode": "07599", "town":"La Pedruscada","island":""},

{"zipCode": "07599", "town":"Sa Pedruscada/La Pedruscada","island":""},
{"zipCode": "07599", "town":"Sa Pedruscada","island":""},
{"zipCode": "07600", "town":"L'Arenal","island":""},
{"zipCode": "07600", "town":"Palma De Mallorca","island":""},
{"zipCode": "07600", "town":"S'Arenal/L'Arenal","island":""},
{"zipCode": "07600", "town":"S'Arenal","island":""},
{"zipCode": "07600", "town":"Son Verí","island":""},
{"zipCode": "07608", "town":"Ca'n Misse","island":""},
{"zipCode": "07608", "town":"El Pil.Lari","island":""},
{"zipCode": "07608", "town":"El Sosiego","island":""},



{"zipCode": "07608", "town":"Es Pil.Lari/El Pil.Lari","island":""},
{"zipCode": "07608", "town":"Es Pil.Lari","island":""},
{"zipCode": "07608", "town":"Los Angeles","island":""},
{"zipCode": "07608", "town":"Palma De Mallorca","island":""},
{"zipCode": "07608", "town":"San Francisco","island":""},
{"zipCode": "07608", "town":"Ses Cadenes/Les Cadenes","island":""},
{"zipCode": "07608", "town":"Ses Cadenes","island":""},
{"zipCode": "07608", "town":"Son Sunyer De L Arenal","island":""},
{"zipCode": "07608", "town":"Son Sunyer De S Arenal/Son Sunyer De L Arenal","island":""},
{"zipCode": "07608", "town":"Son Sunyer De S Arenal","island":""},


{"zipCode": "07609", "town":"Badia Blava","island":""},
{"zipCode": "07609", "town":"Badia Gran","island":""},
{"zipCode": "07609", "town":"Bellavista","island":""},
{"zipCode": "07609", "town":"Cala Blava","island":""},
{"zipCode": "07609", "town":"El Dorado","island":""},
{"zipCode": "07609", "town":"Les Palmeres","island":""},
{"zipCode": "07609", "town":"Maioris Decima","island":""},
{"zipCode": "07609", "town":"Palma De Mallorca","island":""},
{"zipCode": "07609", "town":"Puig De Ros","island":""},
{"zipCode": "07609", "town":"Son Veri (Llucmajor)","island":""},

{"zipCode": "07609", "town":"Tollerich","island":""},
{"zipCode": "07609", "town":"Villas De Regana","island":""},
{"zipCode": "07610", "town":"Can Pastilla","island":""},
{"zipCode": "07610", "town":"Maravillas Las","island":""},
{"zipCode": "07610", "town":"Palma De Mallorca","island":""},
{"zipCode": "07610", "town":"Sometines","island":""},
{"zipCode": "07611", "town":"Palma De Mallorca","island":""},
{"zipCode": "07620", "town":" Llucmajor","island":""},
{"zipCode": "07629", "town":"Cura","island":""},
{"zipCode": "07629", "town":"Gracia","island":""},

{"zipCode": "07629", "town":"Randa","island":""},
{"zipCode": "07629", "town":"San Honorato","island":""},
{"zipCode": "07630", "town":"Campos","island":""},
{"zipCode": "07638", "town":"Baños De San Juan","island":""},
{"zipCode": "07638", "town":"Colonia De Sant Jordi","island":""},
{"zipCode": "07638", "town":"El Palmer","island":""},
{"zipCode": "07638", "town":"Es Palmer/El Palmer","island":""},
{"zipCode": "07638", "town":"Es Palmer","island":""},
{"zipCode": "07639", "town":"Cala Pi","island":""},
{"zipCode": "07639", "town":"La Rapita","island":""},

{"zipCode": "07639", "town":"Les Covetes","island":""},
{"zipCode": "07639", "town":"S Estanyol","island":""},
{"zipCode": "07639", "town":"Sa Rapita/La Rapita","island":""},
{"zipCode": "07639", "town":"Sa Rapita","island":""},
{"zipCode": "07639", "town":"Ses Covetes/Les Covetes","island":""},
{"zipCode": "07639", "town":"Ses Covetes","island":""},
{"zipCode": "07639", "town":"Son Duri","island":""},
{"zipCode": "07639", "town":"Vallgornera","island":""},
{"zipCode": "07640", "town":"Les Salines","island":""},
{"zipCode": "07640", "town":"Ses Salines/Les Salines","island":""},

{"zipCode": "07640", "town":"Ses Salines","island":""},
{"zipCode": "07650", "town":"Santanyi","island":""},
{"zipCode": "07659", "town":"Cala Figuera (Mallorca)","island":""},
{"zipCode": "07659", "town":"Cala Santanyi","island":""},
{"zipCode": "07659", "town":"Calo Den Busques","island":""},
{"zipCode": "07659", "town":"Calo Des Macs","island":""},
{"zipCode": "07659", "town":"Na Rengo","island":""},
{"zipCode": "07659", "town":"S Escaleta","island":""},
{"zipCode": "07659", "town":"Sa Torre Nova","island":""},
{"zipCode": "07660", "town":"Cala D'Or","island":""},

{"zipCode": "07660", "town":"Cala Egos","island":""},
{"zipCode": "07660", "town":"Es Forti","island":""},
{"zipCode": "07660", "town":"Marina","island":""},
{"zipCode": "07669", "town":"Cala Esmeralda","island":""},
{"zipCode": "07669", "town":"Cala Ferrera","island":""},
{"zipCode": "07669", "town":"Cala Serena","island":""},
{"zipCode": "07669", "town":"Calonge","island":""},
{"zipCode": "07669", "town":"L Horta (Felanitx)","island":""},
{"zipCode": "07669", "town":"S Horta/L Horta (Felanitx)","island":""},
{"zipCode": "07669", "town":"Tagomago","island":""},

{"zipCode": "07670", "town":"S'Algar","island":""},
{"zipCode": "07670", "town":"Cala Barbacana","island":""},
{"zipCode": "07670", "town":"Cala Marsal","island":""},
{"zipCode": "07670", "town":"Portocolom","island":""},
{"zipCode": "07680", "town":"Port De Manacor","island":""},
{"zipCode": "07680", "town":"Portocristo/Port De Manacor","island":""},
{"zipCode": "07680", "town":"Portocristo","island":""},
{"zipCode": "07687", "town":"Auto Safari","island":""},
{"zipCode": "07687", "town":"Parque Safari","island":""},
{"zipCode": "07687", "town":"S'Illot-Cala Morlanda","island":""},

{"zipCode": "07688", "town":"Cala Antena","island":""},
{"zipCode": "07688", "town":"Cala Murada","island":""},
{"zipCode": "07689", "town":"Ca N'Gustí","island":""},
{"zipCode": "07689", "town":"Cala Domingos","island":""},
{"zipCode": "07689", "town":"Cala Mandia","island":""},
{"zipCode": "07689", "town":"Cala Romantica","island":""},
{"zipCode": "07689", "town":"Calas De Mallorca","island":""},
{"zipCode": "07689", "town":"Club De Mar","island":""},
{"zipCode": "07689", "town":"Espinagar","island":""},
{"zipCode": "07689", "town":"Porto Cristo Novo","island":""},

{"zipCode": "07689", "town":"Tropicana","island":""},
{"zipCode": "07690", "town":"Cala Llombards","island":""},
{"zipCode": "07690", "town":"Cala S'Almonia","island":""},
{"zipCode": "07690", "town":"Els Llombards","island":""},
{"zipCode": "07690", "town":"Es Llombards/Els Llombards","island":""},
{"zipCode": "07690", "town":"Es Llombards","island":""},
{"zipCode": "07690", "town":"La Costa (Santanyi)","island":""},
{"zipCode": "07690", "town":"S'Almonia","island":""},
{"zipCode": "07690", "town":"Son Mojer","island":""},
{"zipCode": "07691", "town":"Barca Trencada","island":""},

{"zipCode": "07691", "town":"Cala Mondrago","island":""},
{"zipCode": "07691", "town":"L'Alqueria Blanca","island":""},
{"zipCode": "07691", "town":"La Costa (Alqueria Blanca)","island":""},
{"zipCode": "07691", "town":"Portopetro","island":""},
{"zipCode": "07691", "town":"S'Alqueria Blanca/L'Alqueria Blanca","island":""},
{"zipCode": "07691", "town":"S'Alqueria Blanca","island":""},
{"zipCode": "07691", "town":"Sa Taulera","island":""},
{"zipCode": "07700", "town":"Cala Partio","island":""},
{"zipCode": "07700", "town":"Del Grao","island":""},
{"zipCode": "07700", "town":"Es Murta","island":""},

{"zipCode": "07700", "town":"Fortaleza Isabel Ii","island":""},
{"zipCode": "07700", "town":"La Solana","island":""},
{"zipCode": "07700", "town":"Llimpia","island":""},
{"zipCode": "07700", "town":"Maó","island":""},
{"zipCode": "07700", "town":"Riu Pla","island":""},
{"zipCode": "07700", "town":"Sa Bassa","island":""},
{"zipCode": "07700", "town":"Sa Mezquida","island":""},
{"zipCode": "07700", "town":"San Antonio (Mahon)","island":""},
{"zipCode": "07700", "town":"Santa Madrona","island":""},
{"zipCode": "07700", "town":"Serra Morena","island":""},

{"zipCode": "07700", "town":"Vergers De Sant Joan","island":""},
{"zipCode": "07701", "town":"Cala Figuera (Menorca)","island":"Menorca"},
{"zipCode": "07701", "town":"Maó","island":"Menorca"},
{"zipCode": "07702", "town":"Maó","island":"Menorca"},
{"zipCode": "07703", "town":"Maó","island":"Menorca"},
{"zipCode": "07710", "town":"Binifadet","island":""},
{"zipCode": "07710", "town":"Sant Lluis","island":""},
{"zipCode": "07711", "town":"Biniali (San Luis)","island":""},
{"zipCode": "07711", "town":"Binibèquer","island":""},
{"zipCode": "07711", "town":"Biniparrell","island":""},

{"zipCode": "07711", "town":"Binissafuller","island":""},
{"zipCode": "07711", "town":"Cap D En Font","island":""},
{"zipCode": "07711", "town":"De Binibeca","island":""},
{"zipCode": "07711", "town":"De Pescadores","island":""},
{"zipCode": "07711", "town":"L Ullastrar","island":""},
{"zipCode": "07711", "town":"S Ullastrar","island":""},
{"zipCode": "07711", "town":"Torret","island":""},
{"zipCode": "07712", "town":"Binicalaf","island":""},
{"zipCode": "07712", "town":"Binixica","island":""},
{"zipCode": "07712", "town":"Els Canutells","island":""},

{"zipCode": "07712", "town":"Es Canutells/Els Canutells","island":""},
{"zipCode": "07712", "town":"Es Canutells","island":""},
{"zipCode": "07712", "town":"Llucmaçanes","island":""},
{"zipCode": "07712", "town":"Sa Furana","island":""},
{"zipCode": "07712", "town":"Sa Viñeta","island":""},
{"zipCode": "07712", "town":"Sant Climent","island":""},
{"zipCode": "07712", "town":"Ses Furanes","island":""},
{"zipCode": "07712", "town":"Ses Garrigas","island":""},
{"zipCode": "07713", "town":"Alcaufar","island":""},
{"zipCode": "07713", "town":"Cala Alcaufar","island":""},

{"zipCode": "07713", "town":"Cala Biniancolla","island":""},
{"zipCode": "07713", "town":"El Consell (Sant Lluis)","island":""},
{"zipCode": "07713", "town":"Es Consell (Sant Lluis)","island":""},
{"zipCode": "07713", "town":"Es Consell/El Consell (Sant Lluis)","island":""},
{"zipCode": "07713", "town":"Es Consell","island":""},
{"zipCode": "07713", "town":"Es Pou Nou","island":""},
{"zipCode": "07713", "town":"L Algar","island":""},
{"zipCode": "07713", "town":"Les Barraques","island":""},
{"zipCode": "07713", "town":"Marina De Son Gauxo","island":""},
{"zipCode": "07713", "town":"Punta Prima","island":""},

{"zipCode": "07713", "town":"S Algar/L Algar","island":""},
{"zipCode": "07713", "town":"S Algar","island":""},
{"zipCode": "07713", "town":"Ses Barraques/Les Barraques","island":""},
{"zipCode": "07713", "town":"Ses Barraques","island":""},
{"zipCode": "07714", "town":"Maó","island":""},
{"zipCode": "07720", "town":" Biniatap Nou","island":""},
{"zipCode": "07720", "town":" Cala San Esteban","island":""},
{"zipCode": "07720", "town":" El Castell","island":""},
{"zipCode": "07720", "town":" Es Castell/El Castell","island":""},
{"zipCode": "07720", "town":" Es Castell","island":""},

{"zipCode": "07720", "town":" Horitzo","island":""},
{"zipCode": "07720", "town":" Lazareto (Menorca)","island":""},
{"zipCode": "07720", "town":" Noria Riera","island":""},
{"zipCode": "07720", "town":" San Felipe","island":""},
{"zipCode": "07720", "town":" Sant Felip","island":""},
{"zipCode": "07720", "town":" Sol Del Este","island":""},
{"zipCode": "07720", "town":" Son Vilar (Es Castell De Menorca)","island":""},
{"zipCode": "07720", "town":" Trebeluger","island":""},
{"zipCode": "07720", "town":" Trepuco","island":""},
{"zipCode": "07730", "town":"Alaior","island":""},

{"zipCode": "07730", "town":"Cala N'Porter","island":""},
{"zipCode": "07730", "town":"Calas Covas","island":""},
{"zipCode": "07730", "town":"La Argentina","island":""},
{"zipCode": "07730", "town":"Sa Roca","island":""},
{"zipCode": "07730", "town":"San Jaime Mediterraneo","island":""},
{"zipCode": "07730", "town":"Son Bou","island":""},
{"zipCode": "07730", "town":"Son Vitamina","island":""},
{"zipCode": "07730", "town":"Torresolinou","island":""},
{"zipCode": "07740", "town":"Covas Novas (Mercadal)","island":""},
{"zipCode": "07740", "town":"Es Mercadal","island":""},

{"zipCode": "07740", "town":"Monte Toro","island":""},
{"zipCode": "07740", "town":"Na Macaret","island":""},
{"zipCode": "07740", "town":"Port D Addaya","island":""},
{"zipCode": "07740", "town":"Puerto De Addaya","island":""},
{"zipCode": "07740", "town":"S Arenal D En Castell (Menorca)","island":""},
{"zipCode": "07740", "town":"Son Parc","island":""},
{"zipCode": "07748", "town":"Fornells","island":""},
{"zipCode": "07748", "town":"Playas De Fornels","island":""},
{"zipCode": "07748", "town":"Ses Salines (Mercadal-Menorca)","island":""},
{"zipCode": "07749", "town":"El Migjorn Gran","island":""},

{"zipCode": "07749", "town":"Es Migjorn Gran/El Migjorn Gran","island":""},
{"zipCode": "07749", "town":"Es Migjorn Gran","island":""},
{"zipCode": "07749", "town":"Platja Sant Tomàs","island":""},
{"zipCode": "07750", "town":"Cala Galdana","island":""},
{"zipCode": "07750", "town":"Ferreries","island":""},
{"zipCode": "07760", "town":"Ciutadella De Menorca","island":""},
{"zipCode": "07769", "town":"Cala Blanca (Ciutadella De Menorca)","island":""},
{"zipCode": "07769", "town":"Cala Blanes","island":""},
{"zipCode": "07769", "town":"Cala Bruch","island":""},
{"zipCode": "07769", "town":"Cala En Blanes","island":""},


{"zipCode": "07769", "town":"Cala En Forcat","island":""},
{"zipCode": "07769", "town":"Cala N Bosch","island":""},
{"zipCode": "07769", "town":"Cala N Busquets","island":""},
{"zipCode": "07769", "town":"Cala N Morell","island":""},
{"zipCode": "07769", "town":"Caleta D En Gorries","island":""},
{"zipCode": "07769", "town":"Car D Artruix (Ciutadella De Menorca)","island":""},
{"zipCode": "07769", "town":"Colonia De La Asuncion","island":""},
{"zipCode": "07769", "town":"Colonia De San Expedito","island":""},
{"zipCode": "07769", "town":"Colonia Setarea","island":""},
{"zipCode": "07769", "town":"Cuarteles Y Pabellones Militares","island":""},

{"zipCode": "07769", "town":"Quinta Del Mar","island":""},
{"zipCode": "07769", "town":"Santandria","island":""},
{"zipCode": "07769", "town":"Son Blanc (Ciutadella De Menorca)","island":""},
{"zipCode": "07769", "town":"Son Carrio (Ciutadella De Menorca)","island":""},
{"zipCode": "07769", "town":"Torre Del Ram","island":""},
{"zipCode": "07800", "town":"Blanca Dona (Eivissa)","island":""},
{"zipCode": "07800", "town":"Cami Vell De Sant Mateu (Eivissa)","island":""},
{"zipCode": "07800", "town":"Can Bufi (Eivissa)","island":""},
{"zipCode": "07800", "town":"Can Cabrit (Eivissa)","island":""},
{"zipCode": "07800", "town":"Can Escandell (Eivissa)","island":""},

{"zipCode": "07800", "town":"Cas Ferro (Eivissa)","island":""},
{"zipCode": "07800", "town":"Cas Negre (Eivissa)","island":""},
{"zipCode": "07800", "town":"Ciudad Jardin (Eivissa)","island":""},
{"zipCode": "07800", "town":"Eivissa","island":""},
{"zipCode": "07800", "town":"Eivissa-San Juan (Carretera), Hasta Km.1,900","island":""},
{"zipCode": "07800", "town":"Eivissa-Sant Antoni De Portmany (Carretera), Hasta Km.3,900","island":""},
{"zipCode": "07800", "town":"Es Vive (Eivissa)","island":""},
{"zipCode": "07800", "town":"Illa Plana (Eivissa)","island":""},
{"zipCode": "07800", "town":"Montecristo (Eivissa)","island":""},
{"zipCode": "07800", "town":"Puig Den Valls (Eivissa)","island":""},

{"zipCode": "07800", "town":"Sa Tanqueta (Eivissa)","island":""},
{"zipCode": "07800", "town":"Ses Figueres (Eivissa)","island":""},
{"zipCode": "07800", "town":"Talamanca (Eivissa)","island":""},
{"zipCode": "07810", "town":"Cala Portinax","island":""},
{"zipCode": "07810", "town":"Sant Joan De Labritja","island":""},
{"zipCode": "07811", "town":"Cala De San Vicente Ibiza","island":""},
{"zipCode": "07811", "town":"Punta Grossa","island":""},
{"zipCode": "07811", "town":"Sant Vicent De La Cala","island":""},
{"zipCode": "07811", "town":"Sant Vicent De Sa Cala/Sant Vicent De La Cala","island":""},
{"zipCode": "07811", "town":"Sant Vicent De Sa Cala","island":""},

{"zipCode": "07812", "town":"Sant Llorenç De Balàfia","island":""},
{"zipCode": "07814", "town":"Santa Gertrudis De Fruitera","island":""},
{"zipCode": "07815", "town":"Ca N'Clavo","island":""},
{"zipCode": "07815", "town":"Port De Sant Niquel","island":""},
{"zipCode": "07815", "town":"Sant Miquel De Balasant","island":""},
{"zipCode": "07815", "town":"Santa Maria (Isla De Ibiza)","island":""},
{"zipCode": "07816", "town":"Sant Mateu D Albarca","island":""},
{"zipCode": "07816", "town":"Sant Rafel De La Creu","island":""},
{"zipCode": "07816", "town":"Sant Rafel De Sa Creu/Sant Rafel De La Creu","island":""},
{"zipCode": "07816", "town":"Sant Rafel De Sa Creu","island":""},

{"zipCode": "07817", "town":"Aeroport D Eivissa","island":""},
{"zipCode": "07817", "town":"Sant Jordi De Ses Salines","island":""},
{"zipCode": "07817", "town":"Sant Josep De Sa Talaia (Can Bellotera)","island":""},
{"zipCode": "07817", "town":"Sant Josep De Sa Talaia (Can Cifre)","island":""},
{"zipCode": "07817", "town":"Sant Josep De Sa Talaia (Can Fita)","island":""},
{"zipCode": "07817", "town":"Sant Josep De Sa Talaia (Can Guerxo)","island":""},
{"zipCode": "07817", "town":"Sant Josep De Sa Talaia (Can Maña)","island":""},
{"zipCode": "07817", "town":"Sant Josep De Sa Talaia (Can Noguera)","island":""},
{"zipCode": "07817", "town":"Sant Josep De Sa Talaia (Plana Den Fita)","island":""},
{"zipCode": "07817", "town":"Sant Josep De Sa Talaia (Platja Den Bossa)","island":""},

{"zipCode": "07817", "town":"Sant Josep De Sa Talaia (Sa Carroca)","island":""},
{"zipCode": "07818", "town":"Sant Josep De Sa Talaia (La Caleta)","island":""},
{"zipCode": "07818", "town":"Sant Josep De Sa Talaia (Les Salines)","island":""},
{"zipCode": "07818", "town":"Sant Josep De Sa Talaia (Sant Francesc De S Estany)","island":""},
{"zipCode": "07819", "town":"Barrio Creus Des Magres (Eivissa)","island":""},
{"zipCode": "07819", "town":"Ca N'Cifre","island":""},
{"zipCode": "07819", "town":"Ca N'Cirer","island":""},
{"zipCode": "07819", "town":"Ca N'Fita","island":""},
{"zipCode": "07819", "town":"Cap Martinet","island":""},
{"zipCode": "07819", "town":"Cap Negret","island":""},

{"zipCode": "07819", "town":"Estrella Azul","island":""},
{"zipCode": "07819", "town":"Marina De Las Monjas","island":""},
{"zipCode": "07819", "town":"Nuestra Señora De Jesus","island":""},
{"zipCode": "07819", "town":"Prat De Jesus","island":""},
{"zipCode": "07819", "town":"Roca Llisa","island":""},
{"zipCode": "07820", "town":" Cala Gració","island":""},
{"zipCode": "07820", "town":" San Antonio Abad","island":""},
{"zipCode": "07820", "town":" San Antonio","island":""},
{"zipCode": "07820", "town":" Sant Antoni De Portmany","island":""},
{"zipCode": "07828", "town":"Santa Agnes De Corona","island":""},

{"zipCode": "07829", "town":"Sant Josep De Sa Talaia (Cala Bassa)","island":""},
{"zipCode": "07829", "town":"Sant Josep De Sa Talaia (Cala Bou)","island":""},
{"zipCode": "07829", "town":"Sant Josep De Sa Talaia (Cala Codola)","island":""},
{"zipCode": "07829", "town":"Sant Josep De Sa Talaia (Cala Comte)","island":""},
{"zipCode": "07829", "town":"Sant Josep De Sa Talaia (Cala Corral)","island":""},
{"zipCode": "07829", "town":"Sant Josep De Sa Talaia (Cala Tarida)","island":""},
{"zipCode": "07829", "town":"Sant Josep De Sa Talaia (Club Delfin)","island":""},
{"zipCode": "07829", "town":"Sant Josep De Sa Talaia (El Paraiso)","island":""},
{"zipCode": "07829", "town":"Sant Josep De Sa Talaia (Pinos Y Mar)","island":""},
{"zipCode": "07829", "town":"Sant Josep De Sa Talaia (Port Des Torrent)","island":""},

{"zipCode": "07830", "town":"Sant Josep De Sa Talaia (Cala Carbo)","island":""},
{"zipCode": "07830", "town":"Sant Josep De Sa Talaia (Cala D Hort)","island":""},
{"zipCode": "07830", "town":"Sant Josep De Sa Talaia (Cala Moli)","island":""},
{"zipCode": "07830", "town":"Sant Josep De Sa Talaia (Cala Vedella)","island":""},
{"zipCode": "07830", "town":"Sant Josep De Sa Talaia (Calo Den Reial)","island":""},
{"zipCode": "07830", "town":"Sant Josep De Sa Talaia (Nucleo)","island":""},
{"zipCode": "07839", "town":"Sant Josep De Sa Talaia (Benimussa)","island":""},
{"zipCode": "07839", "town":"Sant Josep De Sa Talaia (Es Cubells)","island":""},
{"zipCode": "07839", "town":"Sant Josep De Sa Talaia (Port Roig)","island":""},
{"zipCode": "07839", "town":"Sant Josep De Sa Talaia (Sant Agusti Des Vedrà)","island":""},

{"zipCode": "07839", "town":"Sant Josep De Sa Talaia (Vista Alegre-Sa Caixota)","island":""},
{"zipCode": "07840", "town":"Santa Eularia Des Riu","island":""},
{"zipCode": "07849", "town":"Ca N'Frigolas","island":""},
{"zipCode": "07849", "town":"Ca N'Marça","island":""},
{"zipCode": "07849", "town":"Ca N'Mari","island":""},
{"zipCode": "07849", "town":"Ca N'Sanso","island":""},
{"zipCode": "07849", "town":"Cala Pada","island":""},
{"zipCode": "07849", "town":"Calas Pada","island":""},
{"zipCode": "07849", "town":"De Cala Llonga","island":""},
{"zipCode": "07849", "town":"Es Cana","island":""},

{"zipCode": "07849", "town":"La Siesta","island":""},
{"zipCode": "07849", "town":"Montañas Verdes","island":""},
{"zipCode": "07849", "town":"Niu Blau","island":""},
{"zipCode": "07849", "town":"Pont De S Argentera","island":""},
{"zipCode": "07849", "town":"S Argamassa","island":""},
{"zipCode": "07849", "town":"Sa Font Des Yerns","island":""},
{"zipCode": "07849", "town":"Se Reconada","island":""},
{"zipCode": "07850", "town":"Cala Lenya","island":""},
{"zipCode": "07850", "town":"Cala Mastella","island":""},
{"zipCode": "07850", "town":"Es Figueral","island":""},

{"zipCode": "07850", "town":"Sant Carles De Peralta","island":""},
{"zipCode": "07860", "town":"Cap De Barbaria","island":""},
{"zipCode": "07860", "town":"Sant Francesc De Formentera","island":""},
{"zipCode": "07870", "town":"La Savina","island":""},
{"zipCode": "07871", "town":"Mitjorn","island":""},
{"zipCode": "07871", "town":"Pujols","island":""},
{"zipCode": "07871", "town":"San Fernando","island":""},
{"zipCode": "07872", "town":"Es Caló","island":""},
{"zipCode": "07872", "town":"Faro De La Mola","island":""},
{"zipCode": "07872", "town":"Nuestra Señora Del Pilar","island":""}
]